ONEWEB-0113             
1 48050U 21025J   22120.87971443 -.00000232  00000+0 -66996-3 0  9994
2 48050  87.8978 259.8474 0001858  95.4716 264.6625 13.13470094 55585
ONEWEB-0112             
1 48051U 21025K   22120.86852046 -.00000269  00000+0 -77294-3 0  9994
2 48051  87.8866 259.7185 0001757  98.0357 262.0972 13.13469462 55593
ONEWEB-0156             
1 48052U 21025L   22120.87748606 -.00000269  00000+0 -77101-3 0  9999
2 48052  87.8983 259.8230 0001802 100.0187 260.1145 13.13470549 55579
ONEWEB-0161             
1 48053U 21025M   22120.85061505  .00000117  00000+0  28633-3 0  9990
2 48053  87.8915 259.7788 0001600  97.6372 262.4938 13.13467679 55503
ONEWEB-0158             
1 48054U 21025N   22120.89093316  .00000000  00000+0 -35808-4 0  9995
2 48054  87.8974 259.8383 0002030  92.8763 267.2598 13.13471367 55638
ONEWEB-0157             
1 48055U 21025P   22120.83715624  .00000375  00000+0  99064-3 0  9990
2 48055  87.8950 259.8164 0001541 109.9592 250.1703 13.13470134 55568
ONEWEB-0162             
1 48056U 21025Q   22120.87524728 -.00000257  00000+0 -73833-3 0  9995
2 48056  87.8894 259.7287 0001852 104.0903 256.0432 13.13468665 55546
ONEWEB-0155             
1 48057U 21025R   22120.82147986  .00000185  00000+0  47160-3 0  9990
2 48057  87.8931 259.7951 0001657  94.1174 266.0145 13.13470342 55670
ONEWEB-0149             
1 48058U 21025S   22120.84163628  .00000301  00000+0  78853-3 0  9997
2 48058  87.8971 259.8119 0002105 114.0059 246.1290 13.13469911 55484
ONEWEB-0148             
1 48059U 21025T   22120.88196014 -.00000210  00000+0 -60966-3 0  9994
2 48059  87.8940 259.7794 0001941 128.9266 231.2037 13.13471103 55615
ONEWEB-0160             
1 48060U 21025U   22120.82372941  .00000281  00000+0  73535-3 0  9997
2 48060  87.8921 259.7890 0002897  81.3587 278.7870 13.13470873 55559
ONEWEB-0163             
1 48061U 21025V   22120.88419022 -.00000320  00000+0 -91026-3 0  9997
2 48061  87.8987 259.8670 0001286 114.3071 245.8192 13.13471449 55681
ONEWEB-0159             
1 48062U 21025W   22120.87301581 -.00000282  00000+0 -80706-3 0  9997
2 48062  87.8966 259.7612 0001518 117.5694 242.5589 13.13469408 55606
ONEWEB-0164             
1 48063U 21025X   22120.85507859  .00000027  00000+0  39673-4 0  9995
2 48063  87.8997 259.8857 0001597  87.6297 272.5015 13.13471039 55583
ONEWEB-0167             
1 48064U 21025Y   22120.88644562 -.00000140  00000+0 -41700-3 0  9993
2 48064  87.8951 259.8054 0001540 111.3845 248.7449 13.13472002 55571
ONEWEB-0166             
1 48065U 21025Z   22120.83043551  .00000342  00000+0  90131-3 0  9994
2 48065  87.8864 259.7304 0001571 102.3802 257.7503 13.13472000 55646
ONEWEB-0151             
1 48066U 21025AA  22120.83267176  .00000390  00000+0  10340-2 0  9992
2 48066  87.8963 259.8273 0001605  83.7996 276.3316 13.13471803 55589
ONEWEB-0170             
1 48067U 21025AB  22120.83940642  .00000298  00000+0  78242-3 0  9992
2 48067  87.8992 259.8803 0002123  68.5204 291.6152 13.13471642 55545
ONEWEB-0168             
1 48068U 21025AC  22120.82595199  .00000279  00000+0  72985-3 0  9992
2 48068  87.8975 259.8533 0001605 101.7974 258.3335 13.13472767 55558
ONEWEB-0173             
1 48069U 21025AD  22120.89540914  .00000138  00000+0  34253-3 0  9995
2 48069  87.8976 259.8479 0001199 100.7957 259.3307 13.13472714 55807
ONEWEB-0171             
1 48070U 21025AE  22120.85284465  .00000070  00000+0  15577-3 0  9992
2 48070  87.8906 259.7402 0001698 107.2104 252.9211 13.13468369 55610
ONEWEB-0172             
1 48071U 21025AF  22120.83380446  .00000284  00000+0  74270-3 0  9999
2 48071  87.8952 259.9052 0001446  94.3239 265.8055 13.13472092 56507
ONEWEB-0174             
1 48072U 21025AG  22120.89316990  .00000061  00000+0  13081-3 0  9995
2 48072  87.8920 259.7638 0002062 127.1340 232.9977 13.13468836 55838
ONEWEB-0175             
1 48073U 21025AH  22120.84388860  .00000261  00000+0  67986-3 0  9991
2 48073  87.8880 259.7747 0001815  78.7762 281.3571 13.13469425 55483
ONEWEB-0177             
1 48074U 21025AJ  22120.85732096 -.00000034  00000+0 -12761-3 0  9998
2 48074  87.8987 259.8620 0001053 116.6791 243.4446 13.13469836 55678
ONEWEB-0178             
1 48075U 21025AK  22120.87414258 -.00000305  00000+0 -87115-3 0  9994
2 48075  87.8918 259.7562 0001502 106.3282 253.8013 13.13469050 55726
ONEWEB-0108             
1 48076U 21025AL  22120.83491918  .00000366  00000+0  96743-3 0  9991
2 48076  87.8960 259.8302 0002202 103.4436 256.6939 13.13471861 55646
ONEWEB-0169             
1 48077U 21025AM  22120.86626513  .00001317  00000+0  35712-2 0  9991
2 48077  87.8973 259.8688 0002002 109.9137 250.2208 13.13484815 54309
ONEWEB-0176             
1 48210U 21031A   22120.82818230  .00000128  00000+0  31075-3 0  9990
2 48210  87.9051 229.5134 0001563 105.2943 254.8360 13.14502883 50156
ONEWEB-0184             
1 48211U 21031B   22120.80280634 -.00003238  00000+0 -87688-2 0  9997
2 48211  87.9027 229.4562 0001859  54.4007 305.7295 13.14518951 50121
ONEWEB-0179             
1 48212U 21031C   22120.84720867  .00000014  00000+0  23029-5 0  9998
2 48212  87.9033 229.4426 0001542 110.8789 249.2506 13.14501762 50175
ONEWEB-0180             
1 48213U 21031D   22120.80491503  .00000163  00000+0  40416-3 0  9999
2 48213  87.9025 229.4537 0001625 120.6231 239.5059 13.14499634 50059
ONEWEB-0218             
1 48214U 21031E   22120.82607181  .00000263  00000+0  67620-3 0  9990
2 48214  87.9016 229.4193 0001164  51.2374 308.8859 13.14504272 50214
ONEWEB-0209             
1 48215U 21031F   22120.81549882  .00000142  00000+0  34887-3 0  9998
2 48215  87.9042 229.4688 0001671 106.4246 253.7068 13.14501900 50212
ONEWEB-0198             
1 48216U 21031G   22120.80069608 -.00000103  00000+0 -31097-3 0  9990
2 48216  87.9032 229.4981 0001099  97.9731 262.1524 13.14500897 50322
ONEWEB-0189             
1 48217U 21031H   22120.81339073 -.00000143  00000+0 -42063-3 0  9997
2 48217  87.9025 229.4364 0001125  98.9407 261.1850 13.14506259 50061
ONEWEB-0196             
1 48218U 21031J   22120.86834848 -.00000295  00000+0 -82920-3 0  9997
2 48218  87.9043 229.4403 0001675  97.3521 262.7799 13.14503077 50071
ONEWEB-0183             
1 48219U 21031K   22120.84086617  .00000107  00000+0  25401-3 0  9990
2 48219  87.9051 229.4589 0001803 109.3009 250.8316 13.14501781 50167
ONEWEB-0185             
1 48220U 21031L   22120.79435520 -.00000227  00000+0 -64554-3 0  9994
2 48220  87.9037 229.4634 0001731 112.1212 248.0102 13.14504784 50081
ONEWEB-0187             
1 48221U 21031M   22120.84509441  .00000062  00000+0  13298-3 0  9999
2 48221  87.9047 229.4628 0001709 110.0696 250.0618 13.14501942 50105
ONEWEB-0192             
1 48222U 21031N   22120.81760818  .00000180  00000+0  45081-3 0  9990
2 48222  87.9030 229.4334 0001620  95.4531 264.6784 13.14504752 50015
ONEWEB-0219             
1 48223U 21031P   22120.79858557 -.00000169  00000+0 -48980-3 0  9996
2 48223  87.9026 229.4294 0001712 107.4407 252.6910 13.14504634 50213
ONEWEB-0202             
1 48224U 21031Q   22120.85355792 -.00000142  00000+0 -41785-3 0  9994
2 48224  87.9048 229.4628 0000781  64.7253 295.3957 13.14504501 50205
ONEWEB-0204             
1 48225U 21031R   22120.83874410  .00000101  00000+0  23723-3 0  9991
2 48225  87.9066 229.4722 0002605 104.7354 255.4064 13.14504129 50094
ONEWEB-0205             
1 48226U 21031S   22120.86412792 -.00000150  00000+0 -44037-3 0  9993
2 48226  87.9045 229.4441 0001354 103.4661 256.6620 13.14504002 50111
ONEWEB-0206             
1 48227U 21031T   22120.83665266  .00000337  00000+0  87345-3 0  9991
2 48227  87.9018 229.4182 0001782 114.3242 245.8074 13.14503410 50064
ONEWEB-0182             
1 48228U 21031U   22120.83029647  .00000227  00000+0  57873-3 0  9990
2 48228  87.9063 229.4882 0001677 112.1285 248.0023 13.14501369 50271
ONEWEB-0186             
1 48229U 21031V   22120.84297596  .00000055  00000+0  11309-3 0  9995
2 48229  87.9033 229.4338 0001526 104.8448 255.2850 13.14500120 50224
ONEWEB-0181             
1 48230U 21031W   22120.81972047  .00000195  00000+0  49062-3 0  9997
2 48230  87.9048 229.4866 0001681  99.1916 260.9404 13.14505082 50079
ONEWEB-0188             
1 48231U 21031X   22120.85989196 -.00000248  00000+0 -70208-3 0  9992
2 48231  87.9054 229.4753 0001732 109.2331 250.8986 13.14501462 49982
ONEWEB-0220             
1 48232U 21031Y   22120.82185062  .00000314  00000+0  81320-3 0  9999
2 48232  87.9027 229.4237 0001359 111.9413 248.1861 13.14502136 50248
ONEWEB-0165             
1 48233U 21031Z   22120.85144086 -.00000095  00000+0 -29087-3 0  9994
2 48233  87.9047 229.4674 0001542 109.7693 250.3603 13.14504723 50204
ONEWEB-0199             
1 48234U 21031AA  22120.83452637  .00000206  00000+0  52192-3 0  9992
2 48234  87.9037 229.4595 0001579 105.4788 254.6516 13.14501907 50104
ONEWEB-0203             
1 48235U 21031AB  22120.82395787  .00000245  00000+0  62548-3 0  9993
2 48235  87.9054 229.4340 0001936  86.1564 273.9787 13.14501472 50118
ONEWEB-0197             
1 48236U 21031AC  22120.81126852  .00000043  00000+0  81770-4 0  9993
2 48236  87.9039 229.4630 0001708 102.9902 257.1418 13.14500828 50023
ONEWEB-0194             
1 48237U 21031AD  22120.85567950 -.00000176  00000+0 -50952-3 0  9992
2 48237  87.9036 229.4505 0002200  90.3819 269.7562 13.14503052 50208
ONEWEB-0193             
1 48238U 21031AE  22120.79647188 -.00000174  00000+0 -50259-3 0  9996
2 48238  87.9041 229.4643 0001651  95.9771 264.1547 13.14504826 50140
ONEWEB-0191             
1 48239U 21031AF  22120.80704880  .00001737  00000+0  46513-2 0  9993
2 48239  87.9027 229.4609 0001900  96.0580 264.0767 13.14494504 50003
ONEWEB-0195             
1 48240U 21031AG  22120.86201247 -.00000208  00000+0 -59415-3 0  9990
2 48240  87.9033 229.4365 0001191 100.9670 259.1593 13.14504925 49995
